MALLIGYONG-1            
1 58400U 23179A   24211.21088774  .00006361  00000+0  28430-3 0  9991
2 58400  97.3981  97.3477 0003355  73.3846 286.7759 15.21666533 38115
